{
  "type": "FeatureCollection",
  "features": [
    {
      "type": "Feature",
      "geometry": {
        "type": "Point",
        "coordinates": [
          11.7767194,
          45.2921283
        ]
      },
      "properties": {
        "name": "Tavolo da ping pong",
        "description": "[[https://www.google.com/maps/dir/?api=1&destination=45.2921283,11.7767194|Apri in Google Maps]]",
        "images": [],
        "extra": {},
        "maps_url": "https://www.google.com/maps/dir/?api=1&destination=45.2921283,11.7767194"
      }
    },
    {
      "type": "Feature",
      "geometry": {
        "type": "Point",
        "coordinates": [
          11.8418388,
          45.4716384
        ]
      },
      "properties": {
        "name": "Tavolo da ping pong",
        "description": "[[https://www.google.com/maps/dir/?api=1&destination=45.4716384,11.8418388|Apri in Google Maps]]",
        "images": [],
        "extra": {},
        "maps_url": "https://www.google.com/maps/dir/?api=1&destination=45.4716384,11.8418388"
      }
    },
    {
      "type": "Feature",
      "geometry": {
        "type": "Point",
        "coordinates": [
          11.8179578,
          45.422761
        ]
      },
      "properties": {
        "name": "Tavolo da ping pong",
        "description": "- **Materiale**: cemento\n- **Rete**: sì\n[[https://www.google.com/maps/dir/?api=1&destination=45.422761,11.8179578|Apri in Google Maps]]",
        "images": [],
        "extra": {},
        "maps_url": "https://www.google.com/maps/dir/?api=1&destination=45.422761,11.8179578"
      }
    },
    {
      "type": "Feature",
      "geometry": {
        "type": "Point",
        "coordinates": [
          11.817945,
          45.4227196
        ]
      },
      "properties": {
        "name": "Tavolo da ping pong",
        "description": "- **Materiale**: cemento\n- **Rete**: sì\n[[https://www.google.com/maps/dir/?api=1&destination=45.4227196,11.817945|Apri in Google Maps]]",
        "images": [],
        "extra": {},
        "maps_url": "https://www.google.com/maps/dir/?api=1&destination=45.4227196,11.817945"
      }
    },
    {
      "type": "Feature",
      "geometry": {
        "type": "Point",
        "coordinates": [
          11.9185049,
          45.4359683
        ]
      },
      "properties": {
        "name": "Tavolo da ping pong",
        "description": "- **Materiale**: cemento\n[[https://www.google.com/maps/dir/?api=1&destination=45.4359683,11.9185049|Apri in Google Maps]]",
        "images": [],
        "extra": {},
        "maps_url": "https://www.google.com/maps/dir/?api=1&destination=45.4359683,11.9185049"
      }
    },
    {
      "type": "Feature",
      "geometry": {
        "type": "Point",
        "coordinates": [
          11.8460165,
          45.4369698
        ]
      },
      "properties": {
        "name": "Tavolo da ping pong",
        "description": "- **Materiale**: cemento\n[[https://www.google.com/maps/dir/?api=1&destination=45.4369698,11.8460165|Apri in Google Maps]]",
        "images": [],
        "extra": {},
        "maps_url": "https://www.google.com/maps/dir/?api=1&destination=45.4369698,11.8460165"
      }
    },
    {
      "type": "Feature",
      "geometry": {
        "type": "Point",
        "coordinates": [
          11.8459331,
          45.4370735
        ]
      },
      "properties": {
        "name": "Tavolo da ping pong",
        "description": "- **Materiale**: cemento\n[[https://www.google.com/maps/dir/?api=1&destination=45.4370735,11.8459331|Apri in Google Maps]]",
        "images": [],
        "extra": {},
        "maps_url": "https://www.google.com/maps/dir/?api=1&destination=45.4370735,11.8459331"
      }
    },
    {
      "type": "Feature",
      "geometry": {
        "type": "Point",
        "coordinates": [
          11.9090434,
          45.4150629
        ]
      },
      "properties": {
        "name": "Tavolo da ping pong",
        "description": "- **Materiale**: cemento\n[[https://www.google.com/maps/dir/?api=1&destination=45.4150629,11.9090434|Apri in Google Maps]]",
        "images": [],
        "extra": {},
        "maps_url": "https://www.google.com/maps/dir/?api=1&destination=45.4150629,11.9090434"
      }
    },
    {
      "type": "Feature",
      "geometry": {
        "type": "Point",
        "coordinates": [
          11.9141628,
          45.399807
        ]
      },
      "properties": {
        "name": "Tavolo da ping pong",
        "description": "- **Materiale**: cemento\n[[https://www.google.com/maps/dir/?api=1&destination=45.399807,11.9141628|Apri in Google Maps]]",
        "images": [],
        "extra": {},
        "maps_url": "https://www.google.com/maps/dir/?api=1&destination=45.399807,11.9141628"
      }
    },
    {
      "type": "Feature",
      "geometry": {
        "type": "Point",
        "coordinates": [
          11.8628001,
          45.3896709
        ]
      },
      "properties": {
        "name": "Tavolo da ping pong",
        "description": "- **Materiale**: cemento\n[[https://www.google.com/maps/dir/?api=1&destination=45.3896709,11.8628001|Apri in Google Maps]]",
        "images": [],
        "extra": {},
        "maps_url": "https://www.google.com/maps/dir/?api=1&destination=45.3896709,11.8628001"
      }
    },
    {
      "type": "Feature",
      "geometry": {
        "type": "Point",
        "coordinates": [
          11.8414973,
          45.4300624
        ]
      },
      "properties": {
        "name": "Tavolo da ping pong",
        "description": "- **Materiale**: cemento\n[[https://www.google.com/maps/dir/?api=1&destination=45.4300624,11.8414973|Apri in Google Maps]]",
        "images": [],
        "extra": {},
        "maps_url": "https://www.google.com/maps/dir/?api=1&destination=45.4300624,11.8414973"
      }
    },
    {
      "type": "Feature",
      "geometry": {
        "type": "Point",
        "coordinates": [
          11.9145917,
          45.4257598
        ]
      },
      "properties": {
        "name": "Tavolo da ping pong",
        "description": "- **Materiale**: cemento\n[[https://www.google.com/maps/dir/?api=1&destination=45.4257598,11.9145917|Apri in Google Maps]]",
        "images": [],
        "extra": {},
        "maps_url": "https://www.google.com/maps/dir/?api=1&destination=45.4257598,11.9145917"
      }
    },
    {
      "type": "Feature",
      "geometry": {
        "type": "Point",
        "coordinates": [
          11.8864705,
          45.3943693
        ]
      },
      "properties": {
        "name": "Tavolo da ping pong",
        "description": "- **Materiale**: cemento\n[[https://www.google.com/maps/dir/?api=1&destination=45.3943693,11.8864705|Apri in Google Maps]]",
        "images": [],
        "extra": {},
        "maps_url": "https://www.google.com/maps/dir/?api=1&destination=45.3943693,11.8864705"
      }
    },
    {
      "type": "Feature",
      "geometry": {
        "type": "Point",
        "coordinates": [
          11.939347,
          45.3767245
        ]
      },
      "properties": {
        "name": "Tavolo da ping pong",
        "description": "- **Materiale**: cemento\n- **Rete**: sì\n- **Materiale rete**: metallo\n[[https://www.google.com/maps/dir/?api=1&destination=45.3767245,11.939347|Apri in Google Maps]]",
        "images": [],
        "extra": {},
        "maps_url": "https://www.google.com/maps/dir/?api=1&destination=45.3767245,11.939347"
      }
    },
    {
      "type": "Feature",
      "geometry": {
        "type": "Point",
        "coordinates": [
          11.8864102,
          45.3943924
        ]
      },
      "properties": {
        "name": "Tavolo da ping pong",
        "description": "- **Materiale**: cemento\n[[https://www.google.com/maps/dir/?api=1&destination=45.3943924,11.8864102|Apri in Google Maps]]",
        "images": [],
        "extra": {},
        "maps_url": "https://www.google.com/maps/dir/?api=1&destination=45.3943924,11.8864102"
      }
    },
    {
      "type": "Feature",
      "geometry": {
        "type": "Point",
        "coordinates": [
          11.8342347,
          45.4089959
        ]
      },
      "properties": {
        "name": "Tavolo da ping pong",
        "description": "- **Materiale**: cemento\n[[https://www.google.com/maps/dir/?api=1&destination=45.4089959,11.8342347|Apri in Google Maps]]",
        "images": [],
        "extra": {},
        "maps_url": "https://www.google.com/maps/dir/?api=1&destination=45.4089959,11.8342347"
      }
    },
    {
      "type": "Feature",
      "geometry": {
        "type": "Point",
        "coordinates": [
          11.8576915,
          45.4098271
        ]
      },
      "properties": {
        "name": "Tavolo da ping pong",
        "description": "- **Materiale**: cemento\n[[https://www.google.com/maps/dir/?api=1&destination=45.4098271,11.8576915|Apri in Google Maps]]",
        "images": [],
        "extra": {},
        "maps_url": "https://www.google.com/maps/dir/?api=1&destination=45.4098271,11.8576915"
      }
    },
    {
      "type": "Feature",
      "geometry": {
        "type": "Point",
        "coordinates": [
          11.8341869,
          45.4089955
        ]
      },
      "properties": {
        "name": "Tavolo da ping pong",
        "description": "- **Materiale**: metallo\n[[https://www.google.com/maps/dir/?api=1&destination=45.4089955,11.8341869|Apri in Google Maps]]",
        "images": [],
        "extra": {},
        "maps_url": "https://www.google.com/maps/dir/?api=1&destination=45.4089955,11.8341869"
      }
    },
    {
      "type": "Feature",
      "geometry": {
        "type": "Point",
        "coordinates": [
          11.8347781,
          45.4097224
        ]
      },
      "properties": {
        "name": "Tavolo da ping pong",
        "description": "- **Materiale**: cemento\n[[https://www.google.com/maps/dir/?api=1&destination=45.4097224,11.8347781|Apri in Google Maps]]",
        "images": [],
        "extra": {},
        "maps_url": "https://www.google.com/maps/dir/?api=1&destination=45.4097224,11.8347781"
      }
    },
    {
      "type": "Feature",
      "geometry": {
        "type": "Point",
        "coordinates": [
          11.8885817,
          45.382082
        ]
      },
      "properties": {
        "name": "Tavolo da ping pong",
        "description": "[[https://www.google.com/maps/dir/?api=1&destination=45.382082,11.8885817|Apri in Google Maps]]",
        "images": [],
        "extra": {},
        "maps_url": "https://www.google.com/maps/dir/?api=1&destination=45.382082,11.8885817"
      }
    },
    {
      "type": "Feature",
      "geometry": {
        "type": "Point",
        "coordinates": [
          11.8883161,
          45.3821687
        ]
      },
      "properties": {
        "name": "Tavolo da ping pong",
        "description": "[[https://www.google.com/maps/dir/?api=1&destination=45.3821687,11.8883161|Apri in Google Maps]]",
        "images": [],
        "extra": {},
        "maps_url": "https://www.google.com/maps/dir/?api=1&destination=45.3821687,11.8883161"
      }
    },
    {
      "type": "Feature",
      "geometry": {
        "type": "Point",
        "coordinates": [
          11.8882021,
          45.3824051
        ]
      },
      "properties": {
        "name": "Tavolo da ping pong",
        "description": "[[https://www.google.com/maps/dir/?api=1&destination=45.3824051,11.8882021|Apri in Google Maps]]",
        "images": [],
        "extra": {},
        "maps_url": "https://www.google.com/maps/dir/?api=1&destination=45.3824051,11.8882021"
      }
    },
    {
      "type": "Feature",
      "geometry": {
        "type": "Point",
        "coordinates": [
          11.8883269,
          45.3825992
        ]
      },
      "properties": {
        "name": "Tavolo da ping pong",
        "description": "[[https://www.google.com/maps/dir/?api=1&destination=45.3825992,11.8883269|Apri in Google Maps]]",
        "images": [],
        "extra": {},
        "maps_url": "https://www.google.com/maps/dir/?api=1&destination=45.3825992,11.8883269"
      }
    },
    {
      "type": "Feature",
      "geometry": {
        "type": "Point",
        "coordinates": [
          11.8429934,
          45.3616818
        ]
      },
      "properties": {
        "name": "Parco Majorana",
        "description": "- **Materiale**: metallo\n- **Rete**: sì\n- **Materiale rete**: metallo\n[[https://raw.githubusercontent.com/alesarrett/tavoli-ping-pong/main/images/Albignasego_ParcoMajorana.jpeg|{{https://raw.githubusercontent.com/alesarrett/tavoli-ping-pong/main/images/Albignasego_ParcoMajorana.jpeg}}]]\n[[https://www.google.com/maps/dir/?api=1&destination=45.3616818,11.8429934|Apri in Google Maps]]",
        "images": [
          "https://raw.githubusercontent.com/alesarrett/tavoli-ping-pong/main/images/Albignasego_ParcoMajorana.jpeg"
        ],
        "extra": {},
        "maps_url": "https://www.google.com/maps/dir/?api=1&destination=45.3616818,11.8429934"
      }
    },
    {
      "type": "Feature",
      "geometry": {
        "type": "Point",
        "coordinates": [
          11.971841,
          45.4126796
        ]
      },
      "properties": {
        "name": "Giardini dell'Oasi",
        "description": "- **Materiale**: cemento\n- **Rete**: sì\n- **Materiale rete**: metallo\n[[https://raw.githubusercontent.com/alesarrett/tavoli-ping-pong/main/images/Noventa_ParcoICedri.jpeg|{{https://raw.githubusercontent.com/alesarrett/tavoli-ping-pong/main/images/Noventa_ParcoICedri.jpeg}}]]\n[[https://www.google.com/maps/dir/?api=1&destination=45.4126796,11.971841|Apri in Google Maps]]",
        "images": [
          "https://raw.githubusercontent.com/alesarrett/tavoli-ping-pong/main/images/Noventa_ParcoICedri.jpeg"
        ],
        "extra": {},
        "maps_url": "https://www.google.com/maps/dir/?api=1&destination=45.4126796,11.971841"
      }
    },
    {
      "type": "Feature",
      "geometry": {
        "type": "Point",
        "coordinates": [
          11.9717916,
          45.412564
        ]
      },
      "properties": {
        "name": "Giardini dell'Oasi",
        "description": "- **Materiale**: cemento\n- **Rete**: sì\n- **Materiale rete**: metallo\n[[https://raw.githubusercontent.com/alesarrett/tavoli-ping-pong/main/images/Noventa_ParcoICedri.jpeg|{{https://raw.githubusercontent.com/alesarrett/tavoli-ping-pong/main/images/Noventa_ParcoICedri.jpeg}}]]\n[[https://www.google.com/maps/dir/?api=1&destination=45.412564,11.9717916|Apri in Google Maps]]",
        "images": [
          "https://raw.githubusercontent.com/alesarrett/tavoli-ping-pong/main/images/Noventa_ParcoICedri.jpeg"
        ],
        "extra": {},
        "maps_url": "https://www.google.com/maps/dir/?api=1&destination=45.412564,11.9717916"
      }
    },
    {
      "type": "Feature",
      "geometry": {
        "type": "Point",
        "coordinates": [
          11.889517,
          45.4365882
        ]
      },
      "properties": {
        "name": "Tavolo da ping pong",
        "description": "- **Rete**: no\n[[https://www.google.com/maps/dir/?api=1&destination=45.4365882,11.889517|Apri in Google Maps]]",
        "images": [],
        "extra": {},
        "maps_url": "https://www.google.com/maps/dir/?api=1&destination=45.4365882,11.889517"
      }
    }
  ]
}